CCSDS_OEM_VERS = 2.0  
CREATION_DATE  = 2023-05-23T15:05:11
ORIGINATOR     = ESOC/OPS-GFA                            
 
 



META_START
OBJECT_NAME          = LISA                                    
OBJECT_ID            = -1000                                   
CENTER_NAME          = SUN                     
REF_FRAME            = EME2000 
TIME_SYSTEM          = TDB
START_TIME           = 2035-09-12T12:00:00.00000000            
STOP_TIME            = 2046-06-13T01:04:47.99999985            
INTERPOLATION        = HERMITE                                 
INTERPOLATION_DEGREE = 7                                       
META_STOP

2042-11-16T11:43:43.33266749   123384661.240659    77581421.567661    33016601.878799 -16.7239994  22.5808369  10.0308700    -0.000004906487    -0.000003084919    -0.000001312857
2042-11-19T20:33:02.20915217   118313820.862834    84017322.233316    35877994.432861 -18.1221077  21.6461233   9.6323732    -0.000004701202    -0.000003338258    -0.000001425537
2042-11-23T05:22:21.08563685   112845100.286801    90170698.153155    38618740.444010 -19.4582015  20.6393791   9.2018096    -0.000004480340    -0.000003579909    -0.000001533218
2042-11-26T14:11:39.96212153   106997191.659625    96021097.848699    41229726.563159 -20.7278642  19.5641211   8.7406852    -0.000004244704    -0.000003809082    -0.000001635550
2042-11-29T23:00:58.83860605   100790036.891002   101549124.751415    43702291.806729 -21.9269200  18.4240886   8.2506055    -0.000003995146    -0.000004025038    -0.000001732199
2042-12-03T07:54:34.84466410    94238829.434189   106740930.466407    46030244.918313 -23.0524067  17.2221423   7.7328006    -0.000003732322    -0.000004227257    -0.000001822933
2042-12-06T16:48:10.85072199    87371181.431167   111574339.049451    48203645.368929 -24.0995673  15.9634133   7.1894814    -0.000003457381    -0.000004414905    -0.000001907378
2042-12-10T01:41:46.85678003    80210403.045778   116033441.301805    50215333.732660 -25.0650138  14.6522318   6.6225188    -0.000003171294    -0.000004587396    -0.000001985269
2042-12-13T10:35:22.86283792    72780749.140232   120103611.907603    52058705.748112 -25.9456455  13.2930900   6.0338569    -0.000002875063    -0.000004744201    -0.000002056366
2042-12-16T19:42:33.73349422    65085545.638121   123781244.195689    53732154.000841 -26.7407516  11.8866455   5.4237781    -0.000002568853    -0.000004885217    -0.000002120622
2042-12-20T04:49:44.60415036    57171322.674630   127042373.572507    55224802.675084 -27.4452256  10.4414440   4.7959873    -0.000002254540    -0.000005009567    -0.000002177639
2042-12-23T13:56:55.47480666    49064877.856653   129876398.284168    56531790.683108 -28.0568588   8.9624068   4.1526236    -0.000001933207    -0.000005116890    -0.000002227249
2042-12-26T23:04:06.34546295    40793607.380896   132274167.038062    57648887.881481 -28.5737610   7.4545511   3.4958712    -0.000001605951    -0.000005206887    -0.000002269312
2042-12-30T08:16:05.22855229    32377061.608005   134229712.577303    58573322.439703 -28.9947314   5.9214530   2.8272876    -0.000001273553    -0.000005279380    -0.000002303745
2043-01-02T17:28:04.11164163    23851716.665357   135734259.891358    59300956.506579 -29.3179675   4.3697593   2.1497718    -0.000000937455    -0.000005334090    -0.000002330412
2043-01-06T02:40:02.99473096    15246284.119946   136783135.335085    59829511.955944 -29.5425523   2.8046875   1.4656032    -0.000000598784    -0.000005370895    -0.000002349253
2043-01-09T11:52:01.87782046     6589695.716252   137373193.683390    60157378.802314 -29.6678982   1.2314822   0.7770759    -0.000000258666    -0.000005389733    -0.000002360231
2043-01-12T20:32:36.81565793    -2033051.976235   137503465.382558    60283452.171820 -29.6938989  -0.3344467   0.0909431     0.000000079581    -0.000005390650    -0.000002363339
2043-01-16T05:13:11.75349541   -10649092.287777   137179146.749611    60210226.628439 -29.6217475  -1.8980714  -0.5949650     0.000000417048    -0.000005373879    -0.000002358687
2043-01-19T13:53:46.69133288   -19229966.822644   136401652.140473    59938094.424061 -29.4518288  -3.4542688  -1.2783998     0.000000752649    -0.000005339526    -0.000002346315
2043-01-22T22:34:21.62917036   -27747374.085250   135173877.590296    59468098.481262 -29.1848413  -4.9979548  -1.9571275     0.000001085307    -0.000005287754    -0.000002326285
2043-01-26T06:58:17.79451931   -36144474.096388   133506702.557977    58804552.541699 -28.8232058  -6.5188877  -2.6266396     0.000001412841    -0.000005219044    -0.000002298790
2043-01-29T15:22:13.95986811   -44423250.681519   131402428.328663    57948481.114211 -28.3674699  -8.0174920  -3.2871180     0.000001735369    -0.000005133513    -0.000002263882
2043-02-01T23:46:10.12521706   -52556691.944409   128868218.334365    56902807.824884 -27.8192294  -9.4889432  -3.9364353     0.000002051880    -0.000005031473    -0.000002221690
2043-02-05T08:10:06.29056601   -60518289.131963   125912617.765780    55671065.945373 -27.1803691 -10.9285148  -4.5725048     0.000002361388    -0.000004913289    -0.000002172366
2043-02-08T16:45:59.53680313   -68301089.018096   122536680.780234    54253661.885823 -26.4511457 -12.3350191  -5.1948038     0.000002663669    -0.000004779019    -0.000002115934
2043-02-12T01:21:52.78304025   -75859700.221798   118758511.068915    52658167.328117 -25.6354899 -13.7003253  -5.7997372     0.000002957006    -0.000004629394    -0.000002052701
2043-02-15T09:57:46.02927736   -83169433.757342   114590702.130569    50889904.462082 -24.7361292 -15.0200500  -6.3853620     0.000003240490    -0.000004464918    -0.000001982879
2043-02-18T18:33:39.27551448   -90206429.005918   110047096.866894    48954749.713471 -23.7560504 -16.2899623  -6.9497999     0.000003513245    -0.000004286135    -0.000001906701
2043-02-22T03:27:37.61665022   -96972357.036745   105123744.830523    46850984.983805 -22.6943931 -17.5104367  -7.4932219     0.000003775385    -0.000004092888    -0.000001824098
2043-02-25T12:21:35.95778612  -103418145.784042    99853328.131764    44592542.183559 -21.5581870 -18.6726934  -8.0117236     0.000004025056    -0.000003886450    -0.000001735614
2043-02-28T21:15:34.29892186  -109522624.111358    94253352.276398    42186924.560847 -20.3511774 -19.7729875  -8.5036338     0.000004261484    -0.000003667491    -0.000001641537
2043-03-04T06:09:32.64005760  -115265742.797205    88342384.111045    39642109.520848 -19.0773286 -20.8077742  -8.9673669     0.000004483937    -0.000003436716    -0.000001542168
2043-03-07T15:17:21.35506455  -120643368.613218    82121911.412652    36958716.091773 -17.7369160 -21.7763717  -9.4026220     0.000004692297    -0.000003194160    -0.000001437524
2043-03-11T00:25:10.07007166  -125620831.436952    75629037.296448    34152729.102581 -16.3378815 -22.6725935  -9.8066239     0.000004885259    -0.000002941241    -0.000001328213
2043-03-14T09:32:58.78507861  -130181675.598404    68885331.198627    31233470.730270 -14.8848116 -23.4935299 -10.1780609     0.000005062219    -0.000002678765    -0.000001214587
2043-03-17T18:40:47.50008556  -134310808.956376    61913177.309590    28210631.163436 -13.3824622 -24.2365114 -10.5157246     0.000005222621    -0.000002407569    -0.000001097006
2043-03-21T03:57:19.26546470  -138000742.515108    54722679.965741    25088579.195657 -11.8329375 -24.9002290 -10.8190246     0.000005366202    -0.000002128005    -0.000000975622
2043-03-24T13:13:51.03084384  -141231401.147047    47350054.118091    21883027.128301 -10.2439641 -25.4811023 -11.0863298     0.000005492200    -0.000001841441    -0.000000851030
2043-03-27T22:30:22.79622298  -143992001.525425    39819826.065839    18604638.497367  -8.6207469 -25.9772157 -11.3167589     0.000005600211    -0.000001548785    -0.000000723624
2043-03-31T07:46:54.56160196  -146273298.708359    32157043.499767    15264317.669262  -6.9686019 -26.3869222 -11.5095476     0.000005689881    -0.000001250966    -0.000000593808
2043-04-03T17:09:48.25297919  -148069639.714819    24376995.029778    11868720.374516  -5.2907398 -26.7092114 -11.6642273     0.000005760994    -0.000000948532    -0.000000461821
2043-04-07T02:32:41.94435657  -149371629.234351    16515553.982844     8433494.614164  -3.5948114 -26.9423933 -11.7799960     0.000005813177    -0.000000642832    -0.000000328252
2043-04-10T11:55:35.63573380  -150174790.051139     8598952.624644     4970102.088803  -1.8863912 -27.0856535 -11.8564523     0.000005846242    -0.000000334841    -0.000000193524
2043-04-13T21:18:29.32711103  -150476284.282023      653620.162154     1490103.931386  -0.1711006 -27.1384646 -11.8933200     0.000005860061    -0.000000025541    -0.000000058070
2043-04-17T06:05:24.31588605  -150278249.213268    -7235399.552604    -1969208.345538   1.5327713 -27.1011989 -11.8906161     0.000005854673     0.000000281796     0.000000076678
2043-04-20T14:52:19.30466106  -149585198.937850   -15100591.433058    -5422036.640181   3.2323059 -26.9746274 -11.8487349     0.000005830236     0.000000588474     0.000000211289
2043-04-23T23:39:14.29343608  -148399200.310073   -22916025.780511    -8856999.517588   4.9219686 -26.7590834 -11.7677785     0.000005786793     0.000000893517     0.000000345337
2043-04-27T08:26:09.28221110  -146723926.098396   -30655910.571633   -12262763.039193   6.5962458 -26.4551836 -11.6479730     0.000005724448     0.000001195954     0.000000478392
2043-04-30T16:56:21.54766107  -144572917.644079   -38268539.199115   -15616556.060498   8.2440030 -26.0653256 -11.4902800     0.000005643669     0.000001493792     0.000000609580
2043-05-04T01:26:33.81311089  -141948019.616772   -45755733.990953   -18919162.533656   9.8656772 -25.5897802 -11.2948220     0.000005544489     0.000001787126     0.000000738941
2043-05-07T09:56:46.07856071  -138857560.713557   -53092864.324258   -22159720.313815  11.4559734 -25.0299896 -11.0621885     0.000005427180     0.000002075014     0.000000866059
